{"fetched_at":"2026-03-29T02:12:04Z","count":15717,"tles":[{"name":"TIANMU-1 08","line1":"1 57400U 23101B   26085.76300744  .00000258  00000+0  11605-4 0  9996","line2":"2 57400  97.2683 138.1078 0005815  81.6822 278.5077 15.29307245149049","category":"Other"}]}