{
  "norad_id": 57400,
  "name": "TIANMU-1 08",
  "history": [
    {
      "epoch": "2026-03-26T18:18:43.842816Z",
      "apogee_km": 481.8691579760025,
      "perigee_km": 473.89478518977376,
      "latitude_deg": -6.965853945126816e-05,
      "longitude_deg": 39.217632193985395,
      "height_km": 480.4011151991845,
      "semi_major_axis_km": 6856.018971582887,
      "eccentricity": 0.00058156,
      "inclination_deg": 97.2683,
      "raan_deg": 138.1078,
      "arg_perigee_deg": 81.6822,
      "mean_anomaly_deg": 278.5077,
      "mean_motion_rev_day": 15.29307245
    }
  ]
}